{"fetched_at":"2026-03-29T16:36:15Z","count":15609,"tles":[{"name":"STARLINK-1270","line1":"1 45237U 20012BM  26087.75099455  .00097764  00000+0  17033-2 0  9991","line2":"2 45237  53.0466 256.2906 0001706 207.2915 152.8003 15.49976001338620","category":"Starlink"}]}